[
    {
        "Altitude(m)": 607895.8566772589,
        "Argument of Periapsis(deg)": 0.0,
        "Eccentricity": 0.0,
        "Inclination(deg)": 60.0,
        "Latitude(deg)": 40.99844602136844,
        "Longitude(deg)": 115.08867846435439,
        "Mean Anomaly(deg)": 130.9091,
        "RAAN(deg)": 65.0,
        "Satellite Name": "Test1 294",
        "Satellite Number": 294,
        "Semi-Major Axis(m)": 6980739.136638005,
        "Time(s)": 0
    },
    {
        "Altitude(m)": 607795.1693011499,
        "Argument of Periapsis(deg)": 0.00010418945913296404,
        "Eccentricity": 0.0,
        "Inclination(deg)": 60.0,
        "Latitude(deg)": 40.53076995657869,
        "Longitude(deg)": 115.58527254309955,
        "Mean Anomaly(deg)": 131.5292061454618,
        "RAAN(deg)": 64.99957995086025,
        "Satellite Name": "Test1 294",
        "Satellite Number": 294,
        "Semi-Major Axis(m)": 6980739.136638005,
        "Time(s)": 10
    }
]